{"type": "FeatureCollection", "features": [ {"type": "Feature", "properties": {"norad_id": 34117, "name": "COSMOS 2251 DEB", "group": "cosmos-2251-debris", "lat": 22.441744032841964, "lon": -5.7802718870221295, "alt_km": 728.3470920008431, "timestamp": "2025-12-10T18:57:00.458822+00:00", "meta": {"OBJECT_NAME": "COSMOS 2251 DEB", "OBJECT_ID": "1993-036KN", "EPOCH": "2025-12-10T10:30:21.055680", "MEAN_MOTION": 14.39996052, "ECCENTRICITY": 0.0054466, "INCLINATION": 74.0405, "RA_OF_ASC_NODE": 348.0816, "ARG_OF_PERICENTER": 65.1472, "MEAN_ANOMALY": 295.5332, "EPHEMERIS_TYPE": 0, "CLASSIFICATION_TYPE": "U", "NORAD_CAT_ID": 34117, "ELEMENT_SET_NO": 999, "REV_AT_EPOCH": 88090, "BSTAR": 0.00096164, "MEAN_MOTION_DOT": 3.057e-05, "MEAN_MOTION_DDOT": 0}, "tle": {"line1": "1 34117U 93036KN  25344.43774370  .00003057  00000+0  96164-3 0  9993", "line2": "2 34117  74.0405 348.0816 0054466  65.1472 295.5332 14.39996052880900"}}, "geometry": {"type": "Point", "coordinates": [-5.7802718870221295, 22.441744032841964]}}, {"type": "Feature", "properties": {"norad_id": 34118, "name": "COSMOS 2251 DEB", "group": "cosmos-2251-debris", "lat": 69.24207374376438, "lon": -57.33517583991909, "alt_km": 537.5843513947439, "timestamp": "2025-12-10T18:57:00.458832+00:00", "meta": {"OBJECT_NAME": "COSMOS 2251 DEB", "OBJECT_ID": "1993-036KP", "EPOCH": "2025-12-10T11:05:55.152960", "MEAN_MOTION": 14.93796733, "ECCENTRICITY": 0.0059912, "INCLINATION": 73.9523, "RA_OF_ASC_NODE": 253.9124, "ARG_OF_PERICENTER": 84.8486, "MEAN_ANOMALY": 33.3855, "EPHEMERIS_TYPE": 0, "CLASSIFICATION_TYPE": "U", "NORAD_CAT_ID": 34118, "ELEMENT_SET_NO": 999, "REV_AT_EPOCH": 89142, "BSTAR": 0.0029925, "MEAN_MOTION_DOT": 0.00032999, "MEAN_MOTION_DDOT": 0}, "tle": {"line1": "1 34118U 93036KP  25344.46244390  .00032999  00000+0  29925-2 0  9998", "line2": "2 34118  73.9523 253.9124 0059912  84.8486  33.3855 14.93796733891421"}}, "geometry": {"type": "Point", "coordinates": [-57.33517583991909, 69.24207374376438]}}, {"type": "Feature", "properties": {"norad_id": 34120, "name": "COSMOS 2251 DEB", "group": "cosmos-2251-debris", "lat": 67.34315869828684, "lon": -96.94859953691173, "alt_km": 772.1184611541221, "timestamp": "2025-12-10T18:57:00.458842+00:00", "meta": {"OBJECT_NAME": "COSMOS 2251 DEB", "OBJECT_ID": "1993-036KR", "EPOCH": "2025-12-10T01:59:33.650304", "MEAN_MOTION": 13.98678879, "ECCENTRICITY": 0.01818435, "INCLINATION": 73.9915, "RA_OF_ASC_NODE": 220.8223, "ARG_OF_PERICENTER": 49.1022, "MEAN_ANOMALY": 67.4561, "EPHEMERIS_TYPE": 0, "CLASSIFICATION_TYPE": "U", "NORAD_CAT_ID": 34120, "ELEMENT_SET_NO": 999, "REV_AT_EPOCH": 85943, "BSTAR": 0.00050360812, "MEAN_MOTION_DOT": 8.1e-06, "MEAN_MOTION_DDOT": 0}, "tle": {"line1": "1 34120U 93036KR  25344.08302836  .00000810  00000+0  50361-3 0  9995", "line2": "2 34120  73.9915 220.8223 0181843  49.1022  67.4561 13.98678879859432"}}, "geometry": {"type": "Point", "coordinates": [-96.94859953691173, 67.34315869828684]}}, {"type": "Feature", "properties": {"norad_id": 34121, "name": "COSMOS 2251 DEB", "group": "cosmos-2251-debris", "lat": -24.817124281803537, "lon": 92.88427174252875, "alt_km": 771.1514656942891, "timestamp": "2025-12-10T18:57:00.458852+00:00", "meta": {"OBJECT_NAME": "COSMOS 2251 DEB", "OBJECT_ID": "1993-036KS", "EPOCH": "2025-12-10T12:34:30.002304", "MEAN_MOTION": 13.91916791, "ECCENTRICITY": 0.0240128, "INCLINATION": 73.9929, "RA_OF_ASC_NODE": 100.9674, "ARG_OF_PERICENTER": 306.8919, "MEAN_ANOMALY": 135.5233, "EPHEMERIS_TYPE": 0, "CLASSIFICATION_TYPE": "U", "NORAD_CAT_ID": 34121, "ELEMENT_SET_NO": 999, "REV_AT_EPOCH": 85094, "BSTAR": 0.0016916, "MEAN_MOTION_DOT": 2.704e-05, "MEAN_MOTION_DDOT": 0}, "tle": {"line1": "1 34121U 93036KS  25344.52395836  .00002704  00000+0  16916-2 0  9998", "line2": "2 34121  73.9929 100.9674 0240128 306.8919 135.5233 13.91916791850947"}}, "geometry": {"type": "Point", "coordinates": [92.88427174252875, -24.817124281803537]}}, {"type": "Feature", "properties": {"norad_id": 34122, "name": "COSMOS 2251 DEB", "group": "cosmos-2251-debris", "lat": 65.460551897007, "lon": 161.21430248375168, "alt_km": 632.9109760194724, "timestamp": "2025-12-10T18:57:00.458862+00:00", "meta": {"OBJECT_NAME": "COSMOS 2251 DEB", "OBJECT_ID": "1993-036KT", "EPOCH": "2025-12-10T10:41:19.364064", "MEAN_MOTION": 14.64998703, "ECCENTRICITY": 0.0084194, "INCLINATION": 74.036, "RA_OF_ASC_NODE": 123.0481, "ARG_OF_PERICENTER": 20.5599, "MEAN_ANOMALY": 35.1477, "EPHEMERIS_TYPE": 0, "CLASSIFICATION_TYPE": "U", "NORAD_CAT_ID": 34122, "ELEMENT_SET_NO": 999, "REV_AT_EPOCH": 88651, "BSTAR": 0.0017252, "MEAN_MOTION_DOT": 9.721e-05, "MEAN_MOTION_DDOT": 0}, "tle": {"line1": "1 34122U 93036KT  25344.44536301  .00009721  00000+0  17252-2 0  9994", "line2": "2 34122  74.0360 123.0481 0084194  20.5599  35.1477 14.64998703886515"}}, "geometry": {"type": "Point", "coordinates": [161.21430248375168, 65.460551897007]}}, {"type": "Feature", "properties": {"norad_id": 34127, "name": "COSMOS 2251 DEB", "group": "cosmos-2251-debris", "lat": -34.13039944611644, "lon": -121.53050304536976, "alt_km": 722.6916414630605, "timestamp": "2025-12-10T18:57:00.458872+00:00", "meta": {"OBJECT_NAME": "COSMOS 2251 DEB", "OBJECT_ID": "1993-036KY", "EPOCH": "2025-12-10T04:39:56.961792", "MEAN_MOTION": 14.31501801, "ECCENTRICITY": 0.01149213, "INCLINATION": 74.179, "RA_OF_ASC_NODE": 48.4635, "ARG_OF_PERICENTER": 249.1574, "MEAN_ANOMALY": 141.1493, "EPHEMERIS_TYPE": 0, "CLASSIFICATION_TYPE": "U", "NORAD_CAT_ID": 34127, "ELEMENT_SET_NO": 999, "REV_AT_EPOCH": 86735, "BSTAR": 0.0025855859, "MEAN_MOTION_DOT": 7.369e-05, "MEAN_MOTION_DDOT": 0}, "tle": {"line1": "1 34127U 93036KY  25344.19440928  .00007369  00000+0  25856-2 0  9995", "line2": "2 34127  74.1790  48.4635 0114921 249.1574 141.1493 14.31501801867353"}}, "geometry": {"type": "Point", "coordinates": [-121.53050304536976, -34.13039944611644]}}, {"type": "Feature", "properties": {"norad_id": 34128, "name": "COSMOS 2251 DEB", "group": "cosmos-2251-debris", "lat": -61.372106205798026, "lon": -91.01143769460614, "alt_km": 579.4716524437727, "timestamp": "2025-12-10T18:57:00.458882+00:00", "meta": {"OBJECT_NAME": "COSMOS 2251 DEB", "OBJECT_ID": "1993-036KZ", "EPOCH": "2025-12-10T07:00:14.385888", "MEAN_MOTION": 15.00965109, "ECCENTRICITY": 0.0026257, "INCLINATION": 73.9998, "RA_OF_ASC_NODE": 301.718, "ARG_OF_PERICENTER": 54.4419, "MEAN_ANOMALY": 71.4284, "EPHEMERIS_TYPE": 0, "CLASSIFICATION_TYPE": "U", "NORAD_CAT_ID": 34128, "ELEMENT_SET_NO": 999, "REV_AT_EPOCH": 89130, "BSTAR": 0.0029279, "MEAN_MOTION_DOT": 0.00037786, "MEAN_MOTION_DDOT": 0}, "tle": {"line1": "1 34128U 93036KZ  25344.29183317  .00037786  00000+0  29279-2 0  9992", "line2": "2 34128  73.9998 301.7180 0026257  54.4419  71.4284 15.00965109891307"}}, "geometry": {"type": "Point", "coordinates": [-91.01143769460614, -61.372106205798026]}}, {"type": "Feature", "properties": {"norad_id": 34129, "name": "COSMOS 2251 DEB", "group": "cosmos-2251-debris", "lat": 28.02536300985308, "lon": -7.893151716600758, "alt_km": 622.820841090359, "timestamp": "2025-12-10T18:57:00.458892+00:00", "meta": {"OBJECT_NAME": "COSMOS 2251 DEB", "OBJECT_ID": "1993-036LA", "EPOCH": "2025-12-10T10:40:59.716704", "MEAN_MOTION": 14.75667081, "ECCENTRICITY": 0.0032842, "INCLINATION": 74.0356, "RA_OF_ASC_NODE": 344.016, "ARG_OF_PERICENTER": 66.3081, "MEAN_ANOMALY": 294.1533, "EPHEMERIS_TYPE": 0, "CLASSIFICATION_TYPE": "U", "NORAD_CAT_ID": 34129, "ELEMENT_SET_NO": 999, "REV_AT_EPOCH": 61264, "BSTAR": 0.0019116, "MEAN_MOTION_DOT": 0.0001317, "MEAN_MOTION_DDOT": 0}, "tle": {"line1": "1 34129U 93036LA  25344.44513561  .00013170  00000+0  19116-2 0  9998", "line2": "2 34129  74.0356 344.0160 0032842  66.3081 294.1533 14.75667081612648"}}, "geometry": {"type": "Point", "coordinates": [-7.893151716600758, 28.02536300985308]}}, {"type": "Feature", "properties": {"norad_id": 34136, "name": "COSMOS 2251 DEB", "group": "cosmos-2251-debris", "lat": 25.605199982502523, "lon": -141.41414642831018, "alt_km": 570.2464976298152, "timestamp": "2025-12-10T18:57:00.458902+00:00", "meta": {"OBJECT_NAME": "COSMOS 2251 DEB", "OBJECT_ID": "1993-036LH", "EPOCH": "2025-12-10T10:13:20.579232", "MEAN_MOTION": 14.80054487, "ECCENTRICITY": 0.0085982, "INCLINATION": 74.0207, "RA_OF_ASC_NODE": 47.1956, "ARG_OF_PERICENTER": 170.7669, "MEAN_ANOMALY": 205.8767, "EPHEMERIS_TYPE": 0, "CLASSIFICATION_TYPE": "U", "NORAD_CAT_ID": 34136, "ELEMENT_SET_NO": 999, "REV_AT_EPOCH": 89976, "BSTAR": 0.00074248, "MEAN_MOTION_DOT": 5.959e-05, "MEAN_MOTION_DDOT": 0}, "tle": {"line1": "1 34136U 93036LH  25344.42593263  .00005959  00000+0  74248-3 0  9995", "line2": "2 34136  74.0207  47.1956 0085982 170.7669 205.8767 14.80054487899764"}}, "geometry": {"type": "Point", "coordinates": [-141.41414642831018, 25.605199982502523]}}, {"type": "Feature", "properties": {"norad_id": 34139, "name": "COSMOS 2251 DEB", "group": "cosmos-2251-debris", "lat": 21.493086580566906, "lon": -95.74528888572327, "alt_km": 677.7895394115894, "timestamp": "2025-12-10T18:57:00.458912+00:00", "meta": {"OBJECT_NAME": "COSMOS 2251 DEB", "OBJECT_ID": "1993-036LL", "EPOCH": "2025-12-10T04:43:35.266080", "MEAN_MOTION": 14.59005201, "ECCENTRICITY": 0.00425472, "INCLINATION": 74.031, "RA_OF_ASC_NODE": 258.9095, "ARG_OF_PERICENTER": 330.4044, "MEAN_ANOMALY": 180.1161, "EPHEMERIS_TYPE": 0, "CLASSIFICATION_TYPE": "U", "NORAD_CAT_ID": 34139, "ELEMENT_SET_NO": 999, "REV_AT_EPOCH": 88112, "BSTAR": 0.0022458073, "MEAN_MOTION_DOT": 0.00010666, "MEAN_MOTION_DDOT": 0}, "tle": {"line1": "1 34139U 93036LL  25344.19693595  .00010666  00000+0  22458-2 0  9997", "line2": "2 34139  74.0310 258.9095 0042547 330.4044 180.1161 14.59005201881120"}}, "geometry": {"type": "Point", "coordinates": [-95.74528888572327, 21.493086580566906]}}]}